{
    "links": {
        "self": "http://www.neowsapp.com/rest/v1/neo/3752773?api_key=iIulBulltgU6a56xZRHN4H3l9WmuAYTsLGpBGhQ2"
    },
    "id": "3752773",
    "neo_reference_id": "3752773",
    "name": "(2016 JP5)",
    "designation": "2016 JP5",
    "nasa_jpl_url": "http://ssd.jpl.nasa.gov/sbdb.cgi?sstr=3752773",
    "absolute_magnitude_h": 22.7,
    "estimated_diameter": {
        "kilometers": {
            "estimated_diameter_min": 0.0766575574,
            "estimated_diameter_max": 0.1714115092
        },
        "meters": {
            "estimated_diameter_min": 76.6575573531,
            "estimated_diameter_max": 171.4115092306
        },
        "miles": {
            "estimated_diameter_min": 0.0476327831,
            "estimated_diameter_max": 0.1065101409
        },
        "feet": {
            "estimated_diameter_min": 251.5011804664,
            "estimated_diameter_max": 562.3737359442
        }
    },
    "is_potentially_hazardous_asteroid": false,
    "close_approach_data": [
        {
            "close_approach_date": "2016-04-27",
            "close_approach_date_full": "2016-Apr-27 10:09",
            "epoch_date_close_approach": 1461751740000,
            "relative_velocity": {
                "kilometers_per_second": "30.0844394088",
                "kilometers_per_hour": "108303.9818716984",
                "miles_per_hour": "67295.8825135561"
            },
            "miss_distance": {
                "astronomical": "0.0681883339",
                "lunar": "26.5252618871",
                "kilometers": "10200829.510288793",
                "miles": "6338501.5374716234"
            },
            "orbiting_body": "Earth"
        },
        {
            "close_approach_date": "2017-08-05",
            "close_approach_date_full": "2017-Aug-05 12:41",
            "epoch_date_close_approach": 1501936860000,
            "relative_velocity": {
                "kilometers_per_second": "44.5545846421",
                "kilometers_per_hour": "160396.5047114282",
                "miles_per_hour": "99664.1503858316"
            },
            "miss_distance": {
                "astronomical": "0.1116874994",
                "lunar": "43.4464372666",
                "kilometers": "16708212.015866278",
                "miles": "10382001.5268515164"
            },
            "orbiting_body": "Venus"
        }
    ],
    "orbital_data": {
        "orbit_id": "6",
        "orbit_determination_date": "2020-07-25 06:39:23",
        "first_observation_date": "2016-05-03",
        "last_observation_date": "2016-05-11",
        "data_arc_in_days": 8,
        "observations_used": 48,
        "orbit_uncertainty": "9",
        "minimum_orbit_intersection": ".0656296",
        "jupiter_tisserand_invariant": "6.367",
        "epoch_osculation": "2457510.5",
        "eccentricity": ".3009890014437136",
        "semi_major_axis": ".8602783538820087",
        "inclination": "65.7651667337847",
        "ascending_node_longitude": "217.1912969519205",
        "orbital_period": "291.4452087036072",
        "perihelion_distance": ".6013440311834213",
        "perihelion_argument": "205.6850641116345",
        "aphelion_distance": "1.119212676580596",
        "perihelion_time": "2457398.122739449977",
        "mean_anomaly": "138.8110443742133",
        "mean_motion": "1.23522360035128",
        "equinox": "J2000",
        "orbit_class": {
            "orbit_class_type": "ATE",
            "orbit_class_description": "Near-Earth asteroid orbits similar to that of 2062 Aten",
            "orbit_class_range": "a (semi-major axis) < 1.0 AU; q (perihelion) > 0.983 AU"
        }
    },
    "is_sentry_object": false
}